id,category,satellite_name,tle_line1,tle_line2,inclination,eccentricity,period,perigee,apogee,epoch,raan,arg_perigee,mean_anomaly,mean_motion,semi_major_axis,velocity,orbit_type,satellite_age,bstar,rev_num,norad_number,ephemeris_type,intl_designator
7208,active,STARLINK-30270,1 57530U 23115K   25017.58310053 -.00000442  00000+0 -17625-4 0  9998,2 57530  43.0034 105.5421 0001543 273.8064  86.2602 15.02528519 79724,43.0034,0.0001543,95.83844711036728,558.1691439643664,560.3099760925907,2025-01-17 13:59:39.885792,105.5421,273.8064,15.02528519,15.02528519,6937.239560028479,7.580110590648477,LEO,2,-1.7625e-05,7972,57530,0,23115K
7209,active,STARLINK-30268,1 57531U 23115L   25017.26402274  .00001320  00000+0  11276-3 0  9990,2 57531  43.0027 107.4461 0001551 264.1176  95.9489 15.02529732 79670,43.0027,0.0001551,95.83836973949478,558.1598611051268,560.3117916584706,2025-01-17 06:20:11.564736,107.4461,264.1176,15.02529732,15.02529732,6937.235826381799,7.580112630470363,LEO,2,0.00011276,7967,57531,0,23115L
7212,active,STARLINK-30264,1 57534U 23115P   25017.23740450  .00000666  00000+0  35316-4 0  9995,2 57534  43.0034  37.5439 0000856 281.3968  78.6787 15.25899928 81704,43.0034,8.56e-05,94.37053987461752,487.63370274794306,488.8091998604059,2025-01-17 05:41:51.7488,37.5439,281.3968,15.25899928,15.25899928,6866.2214513041745,7.619210719078689,LEO,2,3.5316e-05,8170,57534,0,23115P
7215,active,2023-117B,1 57581U 23117B   25017.57692189  .00084977  00000+0  16848-2 0  9995,2 57581  97.4569  98.8959 0006104 245.2922 114.7692 15.46712839 80108,97.4569,0.0006104,93.10066896005122,422.3334200218069,430.6403376034614,2025-01-17 13:50:46.051296,98.8959,245.2922,15.46712839,15.46712839,6804.486878812634,7.653695807169263,LEO,2,0.0016848,8010,57581,0,23117B
7216,active,2023-117C,1 57582U 23117C   25017.54880225  .00012964  00000+0  56652-3 0  9998,2 57582  97.4627  93.3090 0008228 265.8743  94.1553 15.22201203 79723,97.4627,0.0008228,94.59984640414189,493.68088217274726,504.99823214800927,2025-01-17 13:10:16.5144,93.309,265.8743,15.22201203,15.22201203,6877.339557160379,7.613049509867411,LEO,2,0.00056652,7972,57582,0,23117C
7217,active,2023-117D,1 57583U 23117D   25017.53572388  .00078436  00000+0  16123-2 0  9990,2 57583  97.4551  98.5883 0006342 246.0453 114.0132 15.45682132 80075,97.4551,0.0006342,93.16275126611866,425.19417562016406,433.82882320601857,2025-01-17 12:51:26.543232,98.5883,246.0453,15.45682132,15.45682132,6807.511499413092,7.651995325432893,LEO,2,0.0016123,8007,57583,0,23117D
7204,active,STARLINK-30257,1 57526U 23115F   25017.53991921  .00000567  00000+0  57074-4 0  9995,2 57526  43.0013 106.0849 0001809 281.6639  78.4000 15.02537041 79710,43.0013,0.0001809,95.83790353957737,557.9583872979638,560.4682710804636,2025-01-17 12:57:29.019744,106.0849,281.6639,15.02537041,15.02537041,6937.213329189214,7.580124921509092,LEO,2,5.7074e-05,7971,57526,0,23115F
7220,active,2023-117G,1 57586U 23117G   25017.58174375  .00195121  00000+0  21641-2 0  9994,2 57586  97.4517 101.6632 0006695 255.0008 105.0509 15.62285611 80275,97.4517,0.0006695,92.17264691302337,376.6683231867646,385.71888342158945,2025-01-17 13:57:42.66,101.6632,255.00080000000003,15.62285611,15.62285611,6759.193603304177,7.679296653076523,LEO,2,0.0021641,8027,57586,0,23117G
7221,active,STARLINK-30166,1 57602U 23119A   25016.82029103  .00001772  00000+0  14617-3 0  9993,2 57602  43.0014 187.1316 0001281 265.6567  94.4129 15.02542133 80317,43.0014,0.0001281,95.83757875227583,558.3090010381638,560.0863110776445,2025-01-16 19:41:13.144992,187.1316,265.6567,15.02542133,15.02542133,6937.197656057904,7.580133484349019,LEO,3,0.00014617,8031,57602,0,23119A
7223,active,STARLINK-30218,1 57604U 23119C   25017.47177118  .00001763  00000+0  14555-3 0  9998,2 57604  43.0028 183.4194 0001283 262.4222  97.6475 15.02540114 80475,43.0028,0.0001283,95.83770753158075,558.3138272550077,560.0939137681808,2025-01-17 11:19:21.029952,183.4194,262.4222,15.02540114,15.02540114,6937.203870511594,7.580130089148306,LEO,2,0.00014555000000000001,8047,57604,0,23119C
7225,active,STARLINK-30255,1 57606U 23119E   25016.51221316  .00000311  00000+0  38056-4 0  9995,2 57606  43.0010 188.2622 0001140 270.2624  89.8088 15.02535617 80332,43.001,0.000114,95.83799436815613,558.4268694453585,560.0085550837539,2025-01-16 12:17:35.217024,188.2622,270.2624,15.02535617,15.02535617,6937.217712264556,7.580122526870113,LEO,3,3.8056e-05,8033,57606,0,23119E
7226,active,STARLINK-30252,1 57607U 23119F   25016.48154549  .00000713  00000+0  67818-4 0  9999,2 57607  43.0025 176.1519 0001319 274.0673  86.0018 15.02538086 80474,43.0025,0.0001319,95.83783688528744,558.2950946673045,560.1251306950289,2025-01-16 11:33:25.530336,176.1519,274.0673,15.02538086,15.02538086,6937.210112681167,7.580126678809909,LEO,3,6.781800000000001e-05,8047,57607,0,23119F
7228,active,STARLINK-30174,1 57609U 23119H   25017.45177038 -.00000427  00000+0 -16555-4 0  9993,2 57609  43.0068 183.2684 0001873 270.6766  89.3862 15.02537038 80474,43.006800000000005,0.0001873,95.83790373092953,557.9139983649284,560.5126784815011,2025-01-17 10:50:32.960832,183.2684,270.6766,15.02537038,15.02537038,6937.213338423215,7.580124916464208,LEO,2,-1.6555e-05,8047,57609,0,23119H
7230,active,STARLINK-30052,1 57611U 23119K   25017.44845331  .00002630  00000+0  20958-3 0  9990,2 57611  43.0028 183.2419 0001238 272.9388  87.1313 15.02555079 80459,43.0028,0.0001238,95.83675301662602,558.298988645437,560.016628918891,2025-01-17 10:45:46.365984,183.2419,272.9388,15.02555079,15.02555079,6937.1578087821645,7.580155254592948,LEO,2,0.00020957999999999998,8045,57611,0,23119K
7232,active,STARLINK-30041,1 57613U 23119M   25017.17588241  .00000813  00000+0  75244-4 0  9996,2 57613  43.0040 184.6394 0001287 276.2142  83.8554 15.02534770 80434,43.004,0.0001287,95.83804839338262,558.3274990807304,560.1131395909279,2025-01-17 04:13:16.240224,184.63940000000002,276.2142,15.0253477,15.0253477,6937.220319335829,7.580121102530058,LEO,2,7.5244e-05,8043,57613,0,23119M
7233,active,STARLINK-30244,1 57614U 23119N   25017.50495568 -.00001219  00000+0 -75173-4 0  9997,2 57614  43.0024 182.8031 0001141 256.9134 103.1581 15.02529313 80488,43.0024,0.0001141,95.8383964652808,558.445577319575,560.0286548294625,2025-01-17 12:07:08.170752,182.8031,256.9134,15.02529313,15.02529313,6937.237116074519,7.5801119258658956,LEO,2,-7.517300000000001e-05,8048,57614,0,23119N
9004,active,STARLINK-32102,1 59699U 24086T   25017.02512044  .00002233  00000+0  60730-4 0  9990,2 59699  43.0020 261.2283 0001660 288.5598  71.5078 15.40693779 40295,43.002,0.000166,93.4643872538152,443.0650271073173,445.3299966812674,2025-01-17 00:36:10.406016,261.2283,288.5598,15.40693779,15.40693779,6822.197511894292,7.6437547371216565,LEO,2,6.0729999999999996e-05,4029,59699,0,24086T
3519,active,STARLINK-3293,1 50176U 21125W   25017.23667380 -.00000288  00000+0  58332-7 0  9996,2 50176  53.2203 318.6452 0002531 146.9671 213.1480 15.08842924173777,53.2203,0.0002531,95.4373697284874,538.1205382159314,541.6223647446704,2025-01-17 05:40:48.61632,318.6452,146.9671,213.148,15.08842924,6917.871451480301,7.590714270618287,LEO,2,5.833199999999999e-08,17377,50176,0,21125W
7241,active,STARLINK-30100,1 57623U 23119X   25016.81032986  .00010686  00000+0  80600-3 0  9997,2 57623  43.0023 187.0571 0000599 271.2093  88.8681 15.02484971 80371,43.0023,5.99e-05,95.84122489036199,558.9580565945016,559.7891539524126,2025-01-16 19:26:52.499904,187.0571,271.2093,15.02484971,15.02484971,6937.3736052734575,7.580037358129432,LEO,3,0.0008060000000000001,8037,57623,0,23119X
7245,active,HEAD-3C,1 57628U 23121C   25017.26577733  .00002761  00000+0  59359-3 0  9991,2 57628  45.0003 320.1051 0005340  92.0002 268.1466 14.60633355 76258,45.0003,0.000534,98.58736931281429,687.491693485088,695.0416703013507,2025-01-17 06:22:43.161312,320.1051,92.0002,14.60633355,14.60633355,7069.266681893219,7.508993098847255,LEO,2,0.00059359,7625,57628,0,23121C
7240,active,STARLINK-30056,1 57622U 23119W   25016.88011490  .00000935  00000+0  84301-4 0  9999,2 57622  43.0016 186.6936 0001194 273.6967  86.3739 15.02534191 80388,43.0016,0.0001194,95.83808532447566,558.3937971839223,560.0504058217612,2025-01-16 21:07:21.92736,186.6936,273.6967,15.02534191,15.02534191,6937.222101502842,7.58012012886636,LEO,3,8.4301e-05,8038,57622,0,23119W
7248,active,STARLINK-30309,1 57632U 23122A   25017.18235359  .00006458  00000+0  49261-3 0  9991,2 57632  43.0006 198.2214 0001812 278.2144  81.8493 15.02544530 79520,43.0006,0.0001812,95.83742586317891,557.9332592651872,560.4472970219867,2025-01-17 04:22:35.350176,198.2214,278.21440000000007,15.0254453,15.0254453,6937.1902781435865,7.5801375152000015,LEO,2,0.00049261,7952,57632,0,23122A
7250,active,STARLINK-30323,1 57634U 23122C   25017.17365429 -.00000820  00000+0 -45664-4 0  9997,2 57634  43.0006 184.5687 0000896 255.7463 104.3280 15.02541407 79681,43.0006,8.96e-05,95.83762505920744,558.5783175639162,559.8214637843248,2025-01-17 04:10:03.730656,184.5687,255.7463,15.02541407,15.02541407,6937.199890674121,7.580132263489678,LEO,2,-4.5664e-05,7968,57634,0,23122C
7252,active,STARLINK-30330,1 57636U 23122E   25017.57123555  .00000305  00000+0  37632-4 0  9997,2 57636  43.0010 195.9786 0001108 252.8157 107.2564 15.02535081 79586,43.001,0.0001108,95.838028556486,558.4507181702902,559.9880059809266,2025-01-17 13:42:34.75152,195.9786,252.8157,15.02535081,15.02535081,6937.219362075608,7.580121625516846,LEO,2,3.7632e-05,7958,57636,0,23122E
7253,active,STARLINK-30311,1 57637U 23122F   25017.56457257  .00001567  00000+0  13101-3 0  9991,2 57637  43.0016 195.9292 0001155 257.0669 103.0044 15.02536928 79580,43.0016,0.0001155,95.83791074717598,558.4124288235334,560.0149251829207,2025-01-17 13:32:59.070048,195.9292,257.0669,15.02536928,15.02536928,6937.2136770032275,7.580124731485126,LEO,2,0.00013100999999999998,7958,57637,0,23122F
